[{"OBJECT_NAME":"STARLINK-32262","OBJECT_ID":"2024-155Q","EPOCH":"2026-03-09T22:00:01.999584","MEAN_MOTION":15.517344,"ECCENTRICITY":0.00087368,"INCLINATION":53.1515,"RA_OF_ASC_NODE":110.6571,"ARG_OF_PERICENTER":9.9972,"MEAN_ANOMALY":355.7695,"EPHEMERIS_TYPE":0,"CLASSIFICATION_TYPE":"U","NORAD_CAT_ID":60938,"ELEMENT_SET_NO":999,"REV_AT_EPOCH":584,"BSTAR":0.0047689737,"MEAN_MOTION_DOT":0.00300228,"MEAN_MOTION_DDOT":0},{"OBJECT_NAME":"POLYTECH UNIVERSE-5","OBJECT_ID":"2024-199L","EPOCH":"2026-03-09T21:29:23.803296","MEAN_MOTION":15.52287921,"ECCENTRICITY":0.00049026,"INCLINATION":97.3133,"RA_OF_ASC_NODE":304.2615,"ARG_OF_PERICENTER":279.4444,"MEAN_ANOMALY":80.6254,"EPHEMERIS_TYPE":0,"CLASSIFICATION_TYPE":"U","NORAD_CAT_ID":61745,"ELEMENT_SET_NO":999,"REV_AT_EPOCH":12223,"BSTAR":0.00078869438,"MEAN_MOTION_DOT":0.00048079,"MEAN_MOTION_DDOT":0}]
